{"type": "FeatureCollection", "features": [
    {"type": "Feature", "geometry": {"type": "Point", "coordinates": [-2.366299, -7.7199]}, "properties": {"name": "African"}}, 
    {"type": "Feature", "geometry": {"type": "Point", "coordinates": [-2.366299, -89.712775]}, "properties": {"name": "Antarctic"}}, 
    {"type": "Feature", "geometry": {"type": "Point", "coordinates": [48.341802, -16.197302]}, "properties": {"name": "Somali"}}, 
    {"type": "Feature", "geometry": {"type": "Point", "coordinates": [76.867856, 13.821353]}, "properties": {"name": "Indian"}}, 
    {"type": "Feature", "geometry": {"type": "Point", "coordinates": [125.920861, -31.800144]}, "properties": {"name": "Australian"}}, 
    {"type": "Feature", "geometry": {"type": "Point", "coordinates": [55.737603, 50.602447]}, "properties": {"name": "Eurasian"}}, 
    {"type": "Feature", "geometry": {"type": "Point", "coordinates": [-88.301409, 56.63195]}, "properties": {"name": "North American"}}, 
    {"type": "Feature", "geometry": {"type": "Point", "coordinates": [-41.223848, -21.795214]}, "properties": {"name": "South American"}}, 
    {"type": "Feature", "geometry": {"type": "Point", "coordinates": [-92.835249, -19.172525]}, "properties": {"name": "Nazca"}}, 
    {"type": "Feature", "geometry": {"type": "Point", "coordinates": [-160.478243, 2.810906]}, "properties": {"name": "Pacific"}}, 
    {"type": "Feature", "geometry": {"type": "Point", "coordinates": [49.64255, 25.32855]}, "properties": {"name": "Arabian"}}, 
    {"type": "Feature", "geometry": {"type": "Point", "coordinates": [-74.160905, 16.198079]}, "properties": {"name": "Caribbean"}}, 
    {"type": "Feature", "geometry": {"type": "Point", "coordinates": [-94.261831, 7.922417]}, "properties": {"name": "Cocos"}}, 
    {"type": "Feature", "geometry": {"type": "Point", "coordinates": [-49.943817, -56.983418]}, "properties": {"name": "Scotia"}}, 
    {"type": "Feature", "geometry": {"type": "Point", "coordinates": [-127.629952, 45.569942]}, "properties": {"name": "Juan de Fuca"}},
    {"type": "Feature", "geometry": {"type": "Point", "coordinates": [132.065503, 17.52538]}, "properties": {"name": "Philippine"}}
]}